OBJECT_NAME,OBJECT_ID,EPOCH,MEAN_MOTION,ECCENTRICITY,INCLINATION,RA_OF_ASC_NODE,ARG_OF_PERICENTER,MEAN_ANOMALY,EPHEMERIS_TYPE,CLASSIFICATION_TYPE,NORAD_CAT_ID,ELEMENT_SET_NO,REV_AT_EPOCH,BSTAR,MEAN_MOTION_DOT,MEAN_MOTION_DDOT
ONEWEB-0198,2021-031G,2026-06-19T14:04:21.158400,13.14502899,.000214,87.8959,289.2333,112.3796,247.7561,0,U,48216,999,24880,-.32850933E-3,-.109E-5,0
ONEWEB-0189,2021-031H,2026-06-19T08:53:35.466432,13.14503082,.00020659,87.8971,289.2625,110.3827,249.7525,0,U,48217,999,24851,-.34546836E-3,-.115E-5,0
ONEWEB-0196,2021-031J,2026-06-19T13:50:27.007872,13.14503257,.00020415,87.8969,289.2304,104.5258,255.6099,0,U,48218,999,24854,-.96126132E-4,-.23E-6,0
ONEWEB-0183,2021-031K,2026-06-19T07:45:05.200704,13.14503546,.00020545,87.8967,289.2790,96.6297,263.5067,0,U,48219,999,24860,.72507278E-3,.282E-5,0
ONEWEB-0185,2021-031L,2026-06-19T13:51:34.895808,13.14502975,.00023491,87.8975,289.2219,100.0540,260.0855,0,U,48220,999,24856,-.18699303E-3,-.57E-6,0
ONEWEB-0187,2021-031M,2026-06-19T13:22:49.831680,13.14499658,.00020887,87.8962,289.2414,103.6387,256.4976,0,U,48221,999,24857,.15335802E-2,.581E-5,0
ONEWEB-0192,2021-031N,2026-06-19T09:00:26.032320,13.14501389,.00019209,87.8967,289.2681,104.1359,255.9985,0,U,48222,999,24846,-.13888286E-3,-.39E-6,0
ONEWEB-0219,2021-031P,2026-06-19T13:59:33.418752,13.14502581,.00021771,87.8967,289.2185,102.8285,257.3088,0,U,48223,999,24869,-.55888942E-4,-.8E-7,0
ONEWEB-0202,2021-031Q,2026-06-19T13:32:11.316768,13.14503602,.00019605,87.8970,289.2350,121.3157,238.8165,0,U,48224,999,24867,.61568116E-3,.241E-5,0
ONEWEB-0204,2021-031R,2026-06-19T14:21:15.749280,13.14507558,.00020165,87.8977,289.2232,91.2760,268.8601,0,U,48225,999,24857,-.82590744E-3,-.293E-5,0
ONEWEB-0205,2021-031S,2026-06-19T08:17:01.946688,13.14501141,.00021802,87.8976,289.2663,105.4648,254.6723,0,U,48226,999,24855,-.22707545E-3,-.71E-6,0
ONEWEB-0206,2021-031T,2026-06-19T14:56:40.035840,13.14503974,.00017884,87.8972,289.2127,97.4711,262.6622,0,U,48227,999,24854,.56270083E-3,.221E-5,0
ONEWEB-0182,2021-031U,2026-06-19T14:49:49.519200,13.14503181,.0002072,87.8968,289.2211,95.5423,264.5943,0,U,48228,999,24875,.56286505E-3,.221E-5,0
ONEWEB-0186,2021-031V,2026-06-19T07:47:22.136064,13.14502986,.00020362,87.8978,289.2705,102.5440,257.5917,0,U,48229,999,24866,.67174382E-3,.262E-5,0
ONEWEB-0181,2021-031W,2026-06-19T14:33:50.226912,13.14504011,.00020378,87.8958,289.2432,106.3826,253.7528,0,U,48230,999,24855,.77180014E-4,.41E-6,0
ONEWEB-0188,2021-031X,2026-06-19T13:39:01.257984,13.14504185,.0002,87.8961,289.2500,101.2193,258.9162,0,U,48231,999,24845,.64552221E-4,.37E-6,0
ONEWEB-0220,2021-031Y,2026-06-19T14:36:06.404544,13.14502994,.00022751,87.8975,289.2154,102.8190,257.3194,0,U,48232,999,24872,.27938484E-3,.116E-5,0
ONEWEB-0165,2021-031Z,2026-06-19T13:27:36.917280,13.14502243,.00020314,87.8970,289.2377,111.8684,248.2662,0,U,48233,999,24867,.65698617E-3,.256E-5,0
ONEWEB-0199,2021-031AA,2026-06-19T14:54:23.299200,13.14503474,.00018101,87.8974,289.2115,95.5141,264.6195,0,U,48234,999,24858,.69396175E-3,.27E-5,0
ONEWEB-0203,2021-031AB,2026-06-19T14:40:41.633472,13.14503284,.00017958,87.8973,289.2169,103.9070,256.2260,0,U,48235,999,24859,.32642847E-3,.134E-5,0
ONEWEB-0197,2021-031AC,2026-06-19T14:03:56.397024,13.14504228,.00022014,87.8964,289.2077,96.7967,263.3414,0,U,48236,999,24850,-.42884774E-3,-.146E-5,0
ONEWEB-0194,2021-031AD,2026-06-19T13:34:28.149312,13.14502560,.00017022,87.8969,289.2342,99.2964,260.8359,0,U,48237,999,24867,.25735485E-3,.108E-5,0
ONEWEB-0193,2021-031AE,2026-06-19T13:57:17.602272,13.14503599,.00015164,87.8968,289.2213,96.0105,264.1198,0,U,48238,999,24862,-.11380895E-3,-.29E-6,0
ONEWEB-0191,2021-031AF,2026-06-19T14:13:17.216832,13.14503183,.00020435,87.8977,289.2183,96.0350,264.1013,0,U,48239,999,24848,-.50123311E-3,-.173E-5,0
ONEWEB-0195,2021-031AG,2026-06-19T13:40:10.056576,13.14502319,.00021313,87.8975,289.2234,111.1000,249.0357,0,U,48240,999,24846,.25348393E-3,.107E-5,0
ONEWEB-0201,2021-031AH,2026-06-19T13:23:13.386048,13.14504020,.00022304,87.8966,289.2415,97.5428,262.5955,0,U,48241,999,24869,.50659855E-3,.201E-5,0
ONEWEB-0207,2021-031AJ,2026-06-19T14:44:06.747936,13.14503463,.0002204,87.8972,289.2153,97.9601,262.1779,0,U,48242,999,24861,.54482314E-3,.215E-5,0
ONEWEB-0208,2021-031AK,2026-06-19T14:17:50.864640,13.14504180,.00020252,87.8970,289.2254,111.2534,248.8812,0,U,48243,999,24862,-.44228142E-3,-.151E-5,0
ONEWEB-0200,2021-031AL,2026-06-19T13:25:19.691616,13.14502584,.00020114,87.8978,289.2195,103.0885,257.0470,0,U,48244,999,24854,.5169988E-3,.204E-5,0
ONEWEB-0217,2021-031AM,2026-06-19T13:48:08.752320,13.14502006,.00019923,87.8975,289.2208,111.6309,248.5033,0,U,48245,999,24849,-.20934102E-3,-.65E-6,0
