ONEWEB-0198             
1 48216U 21031G   26170.58635600 -.00000109  00000+0 -32851-3 0  9990
2 48216  87.8959 289.2333 0002140 112.3796 247.7561 13.14502899248801
ONEWEB-0189             
1 48217U 21031H   26170.37054938 -.00000115  00000+0 -34547-3 0  9998
2 48217  87.8971 289.2625 0002065 110.3827 249.7525 13.14503082248514
ONEWEB-0196             
1 48218U 21031J   26170.57670148 -.00000023  00000+0 -96126-4 0  9998
2 48218  87.8969 289.2304 0002041 104.5258 255.6099 13.14503257248542
ONEWEB-0183             
1 48219U 21031K   26170.32297686  .00000282  00000+0  72507-3 0  9995
2 48219  87.8967 289.2790 0002054  96.6297 263.5067 13.14503546248609
ONEWEB-0185             
1 48220U 21031L   26170.57748722 -.00000057  00000+0 -18699-3 0  9990
2 48220  87.8975 289.2219 0002349 100.0540 260.0855 13.14502975248561
ONEWEB-0187             
1 48221U 21031M   26170.55752120  .00000581  00000+0  15336-2 0  9990
2 48221  87.8962 289.2414 0002088 103.6387 256.4976 13.14499658248570
ONEWEB-0192             
1 48222U 21031N   26170.37530130 -.00000039  00000+0 -13888-3 0  9997
2 48222  87.8967 289.2681 0001920 104.1359 255.9985 13.14501389248468
ONEWEB-0219             
1 48223U 21031P   26170.58302568 -.00000008  00000+0 -55889-4 0  9997
2 48223  87.8967 289.2185 0002177 102.8285 257.3088 13.14502581248696
ONEWEB-0202             
1 48224U 21031Q   26170.56401987  .00000241  00000+0  61568-3 0  9998
2 48224  87.8970 289.2350 0001960 121.3157 238.8165 13.14503602248671
ONEWEB-0204             
1 48225U 21031R   26170.59809895 -.00000293  00000+0 -82591-3 0  9990
2 48225  87.8977 289.2232 0002016  91.2760 268.8601 13.14507558248577
ONEWEB-0205             
1 48226U 21031S   26170.34516142 -.00000071  00000+0 -22708-3 0  9992
2 48226  87.8976 289.2663 0002180 105.4648 254.6723 13.14501141248558
ONEWEB-0206             
1 48227U 21031T   26170.62268560  .00000221  00000+0  56270-3 0  9998
2 48227  87.8972 289.2127 0001788  97.4711 262.6622 13.14503974248546
ONEWEB-0182             
1 48228U 21031U   26170.61793425  .00000221  00000+0  56287-3 0  9999
2 48228  87.8968 289.2211 0002072  95.5423 264.5943 13.14503181248752
ONEWEB-0186             
1 48229U 21031V   26170.32456176  .00000262  00000+0  67174-3 0  9999
2 48229  87.8978 289.2705 0002036 102.5440 257.5917 13.14502986248665
ONEWEB-0181             
1 48230U 21031W   26170.60683133  .00000041  00000+0  77180-4 0  9991
2 48230  87.8958 289.2432 0002037 106.3826 253.7528 13.14504011248558
ONEWEB-0188             
1 48231U 21031X   26170.56876456  .00000037  00000+0  64552-4 0  9993
2 48231  87.8961 289.2500 0002000 101.2193 258.9162 13.14504185248452
ONEWEB-0220             
1 48232U 21031Y   26170.60840746  .00000116  00000+0  27938-3 0  9996
2 48232  87.8975 289.2154 0002275 102.8190 257.3194 13.14502994248725
ONEWEB-0165             
1 48233U 21031Z   26170.56084395  .00000256  00000+0  65699-3 0  9993
2 48233  87.8970 289.2377 0002031 111.8684 248.2662 13.14502243248676
ONEWEB-0199             
1 48234U 21031AA  26170.62110300  .00000270  00000+0  69396-3 0  9991
2 48234  87.8974 289.2115 0001810  95.5141 264.6195 13.14503474248581
ONEWEB-0203             
1 48235U 21031AB  26170.61159298  .00000134  00000+0  32643-3 0  9994
2 48235  87.8973 289.2169 0001795 103.9070 256.2260 13.14503284248597
ONEWEB-0197             
1 48236U 21031AC  26170.58606941 -.00000146  00000+0 -42885-3 0  9997
2 48236  87.8964 289.2077 0002201  96.7967 263.3414 13.14504228248503
ONEWEB-0194             
1 48237U 21031AD  26170.56560358  .00000108  00000+0  25735-3 0  9998
2 48237  87.8969 289.2342 0001702  99.2964 260.8359 13.14502560248679
ONEWEB-0193             
1 48238U 21031AE  26170.58145373 -.00000029  00000+0 -11381-3 0  9993
2 48238  87.8968 289.2213 0001516  96.0105 264.1198 13.14503599248627
ONEWEB-0191             
1 48239U 21031AF  26170.59256038 -.00000173  00000+0 -50123-3 0  9993
2 48239  87.8977 289.2183 0002043  96.0350 264.1013 13.14503183248481
ONEWEB-0195             
1 48240U 21031AG  26170.56956084  .00000107  00000+0  25348-3 0  9996
2 48240  87.8975 289.2234 0002131 111.1000 249.0357 13.14502319248468
ONEWEB-0201             
1 48241U 21031AH  26170.55779382  .00000201  00000+0  50660-3 0  9990
2 48241  87.8966 289.2415 0002230  97.5428 262.5955 13.14504020248691
ONEWEB-0207             
1 48242U 21031AJ  26170.61396699  .00000215  00000+0  54482-3 0  9995
2 48242  87.8972 289.2153 0002204  97.9601 262.1779 13.14503463248618
ONEWEB-0208             
1 48243U 21031AK  26170.59572760 -.00000151  00000+0 -44228-3 0  9996
2 48243  87.8970 289.2254 0002025 111.2534 248.8812 13.14504180248622
ONEWEB-0200             
1 48244U 21031AL  26170.55925569  .00000204  00000+0  51700-3 0  9992
2 48244  87.8978 289.2195 0002011 103.0885 257.0470 13.14502584248547
ONEWEB-0217             
1 48245U 21031AM  26170.57510130 -.00000065  00000+0 -20934-3 0  9991
2 48245  87.8975 289.2208 0001992 111.6309 248.5033 13.14502006248496
